<?xml version="1.0" encoding="UTF-8"?>
<gpx version="1.1" creator="albanie-4x4-plan" xmlns="http://www.topografix.com/GPX/1/1">
  <metadata><name>Albánie 4x4 – trasa D (Tomorr, Frashër, Përmet, Zagoria, Gjirokastër, Kurvelesh) 18.–24. 9. 2026</name></metadata>
  <wpt lat="41.3275" lon="19.8187"><name>Tirana</name><desc>Pá 7:55 přílet, auto ~9:00</desc></wpt>
  <wpt lat="40.7058" lon="19.9522"><name>Berat</name><desc>Pá – Mangalem, hrad</desc></wpt>
  <wpt lat="40.7500" lon="20.0700"><name>Roshnik</name><desc>Pá nocleh – bujtina, vinařství</desc></wpt>
  <wpt lat="40.6500" lon="20.1300"><name>Qafa e Kulmakut</name><desc>So – konec asfaltu, tekke</desc></wpt>
  <wpt lat="40.6360" lon="20.1510"><name>Tomorr – türbe</name><desc>So – 8,7 km šotoliny, 2 379 m</desc></wpt>
  <wpt lat="40.5800" lon="20.0600"><name>Bogovë</name><desc>So – vodopád, volitelně</desc></wpt>
  <wpt lat="40.5040" lon="20.2270"><name>Çorovodë</name><desc>So nocleh</desc></wpt>
  <wpt lat="40.4700" lon="20.2200"><name>Kaňon Osumi</name><desc>Ne 7:00 – brodění 2 h</desc></wpt>
  <wpt lat="40.3830" lon="20.4180"><name>Frashër</name><desc>Ne – track 52,7 km</desc></wpt>
  <wpt lat="40.2330" lon="20.3510"><name>Përmet</name><desc>Ne nocleh – Bënja večer</desc></wpt>
  <wpt lat="40.2500" lon="20.4300"><name>Lengarica</name><desc>Po ráno – 2 h ve vodě</desc></wpt>
  <wpt lat="40.3130" lon="20.1900"><name>Këlcyrë</name><desc>Po – asfalt</desc></wpt>
  <wpt lat="40.0758" lon="20.1389"><name>Gjirokastër</name><desc>Po průjezd, nocleh po Zagorii</desc></wpt>
  <wpt lat="40.0330" lon="20.2600"><name>Libohovë</name><desc>Po – start okruhu</desc></wpt>
  <wpt lat="40.0900" lon="20.3000"><name>Soutěska Selckë</name><desc>Po</desc></wpt>
  <wpt lat="40.1050" lon="20.3250"><name>Poliçan (Zagoria)</name><desc>Po</desc></wpt>
  <wpt lat="40.1350" lon="20.3000"><name>Zagoria – Sheper</name><desc>Po – mosty, Hoshtevë</desc></wpt>
  <wpt lat="40.0950" lon="20.2250"><name>Fushë Çajupi</name><desc>Po – plošina 1 300 m</desc></wpt>
  <wpt lat="40.2960" lon="20.0190"><name>Tepelenë</name><desc>Út – asfalt</desc></wpt>
  <wpt lat="40.2500" lon="19.9100"><name>Progonat</name><desc>Út / St Peshtura</desc></wpt>
  <wpt lat="40.1830" lon="19.8850"><name>Nivicë</name><desc>Út nocleh (rezervovat!), kaňon</desc></wpt>
  <wpt lat="40.7239" lon="19.5559"><name>Fier / Apollonia</name><desc>St – volitelně</desc></wpt>
  <wpt lat="41.4650" lon="19.8900"><name>Bovilla</name><desc>Čt ráno volitelně</desc></wpt>
  <trk><name>Albánie 4x4 – trasa D (Tomorr, Frashër, Përmet, Zagoria, Gjirokastër, Kurvelesh) 18.–24. 9. 2026</name><trkseg>
    <trkpt lat="41.3275" lon="19.8187"><name>Tirana</name></trkpt>
    <trkpt lat="40.7058" lon="19.9522"><name>Berat</name></trkpt>
    <trkpt lat="40.7500" lon="20.0700"><name>Roshnik</name></trkpt>
    <trkpt lat="40.6500" lon="20.1300"><name>Qafa e Kulmakut</name></trkpt>
    <trkpt lat="40.6360" lon="20.1510"><name>Tomorr – türbe</name></trkpt>
    <trkpt lat="40.6500" lon="20.1300"><name>Qafa e Kulmakut</name></trkpt>
    <trkpt lat="40.5800" lon="20.0600"><name>Bogovë</name></trkpt>
    <trkpt lat="40.5040" lon="20.2270"><name>Çorovodë</name></trkpt>
    <trkpt lat="40.4700" lon="20.2200"><name>Kaňon Osumi</name></trkpt>
    <trkpt lat="40.5040" lon="20.2270"><name>Çorovodë</name></trkpt>
    <trkpt lat="40.3830" lon="20.4180"><name>Frashër</name></trkpt>
    <trkpt lat="40.2330" lon="20.3510"><name>Përmet</name></trkpt>
    <trkpt lat="40.2500" lon="20.4300"><name>Lengarica</name></trkpt>
    <trkpt lat="40.3130" lon="20.1900"><name>Këlcyrë</name></trkpt>
    <trkpt lat="40.0758" lon="20.1389"><name>Gjirokastër</name></trkpt>
    <trkpt lat="40.0330" lon="20.2600"><name>Libohovë</name></trkpt>
    <trkpt lat="40.0900" lon="20.3000"><name>Soutěska Selckë</name></trkpt>
    <trkpt lat="40.1050" lon="20.3250"><name>Poliçan (Zagoria)</name></trkpt>
    <trkpt lat="40.1350" lon="20.3000"><name>Zagoria – Sheper</name></trkpt>
    <trkpt lat="40.0950" lon="20.2250"><name>Fushë Çajupi</name></trkpt>
    <trkpt lat="40.0758" lon="20.1389"><name>Gjirokastër</name></trkpt>
    <trkpt lat="40.2960" lon="20.0190"><name>Tepelenë</name></trkpt>
    <trkpt lat="40.2500" lon="19.9100"><name>Progonat</name></trkpt>
    <trkpt lat="40.1830" lon="19.8850"><name>Nivicë</name></trkpt>
    <trkpt lat="40.2500" lon="19.9100"><name>Progonat</name></trkpt>
    <trkpt lat="40.2960" lon="20.0190"><name>Tepelenë</name></trkpt>
    <trkpt lat="40.7239" lon="19.5559"><name>Fier / Apollonia</name></trkpt>
    <trkpt lat="41.3275" lon="19.8187"><name>Tirana</name></trkpt>
    <trkpt lat="41.4650" lon="19.8900"><name>Bovilla</name></trkpt>
    <trkpt lat="41.3275" lon="19.8187"><name>Tirana</name></trkpt>
  </trkseg></trk>
</gpx>
