<?xml version="1.0" encoding="UTF-8"?>
<gpx version="1.1" creator="albanie build_ubytovani" xmlns="http://www.topografix.com/GPX/1/1"><metadata><name>Albánie 4x4 – ubytování (16. 9. 2026)</name></metadata>
<wpt lat="40.2341" lon="19.8983"><name>Guesthouse on Canyon (Bujtina mbi Kanion)</name><desc>noc Pá</desc><sym>Lodging</sym></wpt>
<wpt lat="40.2403" lon="19.8916"><name>Saffron House (Shafran House) (jen střed obce)</name><desc>noc Pá</desc><sym>Lodging</sym></wpt>
<wpt lat="40.238" lon="19.889"><name>Camp Nivica (glamping) (jen střed obce)</name><desc>noc Pá</desc><sym>Lodging</sym></wpt>
<wpt lat="40.2121" lon="19.9461"><name>Mari&#x27;s Guesthouse</name><desc>noc Pá · volné · Progonat, Tepelenë · storno zdarma do 17. 9., platba na místě</desc><link href="https://www.booking.com/hotel/al/maris-guesthouse.html"><text>Booking</text></link><sym>Lodging</sym></wpt>
<wpt lat="40.0755" lon="20.1392"><name>Stone City Hostel</name><desc>noc So · volné · Rruga Alqi Kondi, Pazar, Gjirokastër (40 m od centra) · storno zdarma do 17. 9., platba na místě</desc><link href="https://www.booking.com/hotel/al/stone-city-hostel1312.html"><text>Booking</text></link><sym>Lodging</sym></wpt>
<wpt lat="40.0755" lon="20.1391"><name>Hotel Kalemi 2</name><desc>noc So · plné · Rruga Alqi Kondi, Gjirokastër, srdce starého města · –</desc><link href="https://www.booking.com/hotel/al/kalemi-2.html"><text>Booking</text></link><sym>Lodging</sym></wpt>
<wpt lat="40.0755" lon="20.1392"><name>Babameto House (jen střed obce)</name><desc>noc So</desc><sym>Lodging</sym></wpt>
<wpt lat="39.9848" lon="20.2642"><name>Life on the Farm</name><desc>noc So · volné · Nepravishtë, 13 km jižně od Gjirokastru, 6 km jižně od Libohovë · storno zdarma do 17. 9., platba na místě</desc><link href="https://www.booking.com/hotel/al/life-on-the-farm.html"><text>Booking</text></link><sym>Lodging</sym></wpt>
<wpt lat="40.073" lon="20.2912"><name>Bujtina Maria</name><desc>noc So · volné · Labovë e Kryqit, 13 km JV od Gjirokastru, u kostela · jen nevratná sazba</desc><link href="https://www.booking.com/hotel/al/bujtina-maria.html"><text>Booking</text></link><sym>Lodging</sym></wpt>
<wpt lat="40.1161" lon="20.1444"><name>The Barrels (Te Fuçitë)</name><desc>noc So · plné · Valarë, Rruga Valarë–Erind, 4,5 km severně od Gjirokastru · –</desc><link href="https://www.booking.com/hotel/al/the-barrels-ms.html"><text>Booking</text></link><sym>Lodging</sym></wpt>
<wpt lat="40.2522" lon="20.2996"><name>Traditional GuestHouse Përmet, Bual</name><desc>noc Ne · volné · Bual, Lagje Golemas, 5 km od Përmetu, posledních 3 km šotolina · platba na místě; podmínky storna ověřit v rezervaci</desc><link href="https://www.booking.com/hotel/al/cullufe.html"><text>Booking</text></link><sym>Lodging</sym></wpt>
<wpt lat="40.2105" lon="20.42"><name>The Stone House, Petran</name><desc>noc Ne · volné · Rruga Mulliri i Vjetër 19, Petran, 6 km od Përmetu · storno zdarma do 19. 9., platba na místě (levnější sazba nevratná)</desc><link href="https://www.booking.com/hotel/al/the-stone-house.html"><text>Booking</text></link><sym>Lodging</sym></wpt>
<wpt lat="40.2192" lon="20.3551"><name>Chri Chri Guesthouse, Leusë</name><desc>noc Ne · plné · Leusë, nad Përmetem (1,5 km jižně od centra, do kopce) · –</desc><link href="https://www.booking.com/hotel/al/chri-chri-guesthouse.html"><text>Booking</text></link><sym>Lodging</sym></wpt>
<wpt lat="40.2519" lon="20.4162"><name>Mulliri i Bënjës (Camping Rafting Restaurant), Bënja (jen střed obce)</name><desc>noc Ne</desc><sym>Lodging</sym></wpt>
<wpt lat="40.2195" lon="20.3808"><name>Albturist Ecocamp, Përmet</name><desc>noc Ne · volné (stan) · 3 km od Përmetu na silnici směr Korçë/Bënja, u Vjosy · storno zdarma do 20. 9. 18:00, platba na místě</desc><link href="https://www.booking.com/hotel/al/albturist-rafting-cammping-permet.html"><text>Booking</text></link><sym>Lodging</sym></wpt>
<wpt lat="40.2335" lon="20.3537"><name>Hotel Alvero, Përmet</name><desc>noc Ne · plné · Rruga Mentor Xhemali, Përmet, u řeky v centru · –</desc><link href="https://www.booking.com/hotel/al/alvero.html"><text>Booking</text></link><sym>Lodging</sym></wpt>
<wpt lat="40.4432" lon="20.6697"><name>Sofra Kolonjare Agroturizëm, Ersekë</name><desc>noc Po · volné · SH75, 11 km severně od Ersekë směr Korçë (POZOR: ne v Ersekë samotné) · bez platby předem</desc><link href="https://www.booking.com/hotel/al/sofra-kolonjare-erseke.html"><text>Booking</text></link><sym>Lodging</sym></wpt>
<wpt lat="40.3338" lon="20.7062"><name>Bujtina Cakuli, Rehovë</name><desc>noc Po · volné · Rruga Pali Prifti, Rehovë – 3 km východně od Ersekë · bez platby předem</desc><link href="https://www.booking.com/hotel/al/bujtina-cakuli-rehove-erseke.html"><text>Booking</text></link><sym>Lodging</sym></wpt>
<wpt lat="40.6316" lon="20.5898"><name>Bujtina Liana, Voskopojë</name><desc>noc Po · volné · Rruga Koste Cekani, Voskopojë – 100 m od centra · jen nevratná sazba (Non-refundable)</desc><link href="https://www.booking.com/hotel/al/bujtina-liana-voskopoje.html"><text>Booking</text></link><sym>Lodging</sym></wpt>
<wpt lat="40.6332" lon="20.5906"><name>Vila Falo, Voskopojë (jen střed obce)</name><desc>noc Po</desc><sym>Lodging</sym></wpt>
<wpt lat="40.6313" lon="20.5937"><name>Bujtina Argis, Voskopojë</name><desc>noc Po · volné · SH63 10, Voskopojë – 400 m od centra · bez platby předem (No prepayment needed)</desc><link href="https://www.booking.com/hotel/al/bujtina-argis-voskopoje.html"><text>Booking</text></link><sym>Lodging</sym></wpt>
<wpt lat="40.6332" lon="20.5906"><name>Hotel Akademia, Voskopojë (jen střed obce)</name><desc>noc Po</desc><sym>Lodging</sym></wpt>
<wpt lat="40.5246" lon="20.5828"><name>Bujtina L &amp; M, Vithkuq (jen střed obce)</name><desc>noc Po</desc><sym>Lodging</sym></wpt>
<wpt lat="40.6181" lon="20.7752"><name>Hani i Pazarit, Korçë</name><desc>noc Po · volné · Rruga Kiço Greço, Korçë – starý bazar (centrum) · storno zdarma do 18. 9., bez platby předem</desc><link href="https://www.booking.com/hotel/al/hani-i-pazarit.html"><text>Booking</text></link><sym>Lodging</sym></wpt>
<wpt lat="40.6158" lon="20.7816"><name>Bujtina Leon, Korçë</name><desc>noc Po · volné · Rr. Shpresa Palla 3, Korçë – u katedrály, centrum · storno zdarma do 20. 9., bez platby předem</desc><link href="https://www.booking.com/hotel/al/bujtina-leon.html"><text>Booking</text></link><sym>Lodging</sym></wpt>
<wpt lat="40.6159" lon="20.7772"><name>Life Gallery Hotel &amp; Spa, Korçë (jen střed obce)</name><desc>noc Po</desc><sym>Lodging</sym></wpt>
<wpt lat="40.4845" lon="20.2403"><name>Guest House Bracaj</name><desc>noc Út · plné · Çerenisht, 2,4 km jižně od Çorovodë (směr kaňon) · –</desc><link href="https://www.booking.com/hotel/al/guest-house-bracaj-corovode1.html"><text>Booking</text></link><sym>Lodging</sym></wpt>
<wpt lat="40.5375" lon="20.2322"><name>Xhaferri Guesthouse</name><desc>noc Út · volné · Mollas, 4 km severně od Çorovodë (nad silnicí na Poliçan) · bez platby předem</desc><link href="https://www.booking.com/hotel/al/xhaferri-guesthouse.html"><text>Booking</text></link><sym>Lodging</sym></wpt>
<wpt lat="40.5012" lon="20.2288"><name>Guest House Nuhellari</name><desc>noc Út · volné · Rruga Mestan Ujaniku, Çorovodë – centrum · jen nevratná sazba</desc><link href="https://www.booking.com/hotel/al/guest-house-nuhellari.html"><text>Booking</text></link><sym>Lodging</sym></wpt>
<wpt lat="40.5036" lon="20.2283"><name>Hotel Skrapari (jen střed obce)</name><desc>noc Út</desc><sym>Lodging</sym></wpt>
<wpt lat="40.5726" lon="20.1569"><name>KT Qato Hotel (jen střed obce)</name><desc>noc Út</desc><sym>Lodging</sym></wpt>
<wpt lat="40.5704" lon="20.1467"><name>The White Villa</name><desc>noc Út · volné · Rruga Bogova, Bogovë – u soutoku pod vodopádem · storno zdarma do 22. 9. 18:00, bez platby předem</desc><link href="https://www.booking.com/hotel/al/the-white-villa.html"><text>Booking</text></link><sym>Lodging</sym></wpt>
<wpt lat="40.64" lon="20.1"><name>Bujtina e Tomorrit (jen střed obce)</name><desc>noc St</desc><sym>Lodging</sym></wpt>
<wpt lat="40.7289" lon="20.0414"><name>Alpeta Agroturizëm &amp; Winery</name><desc>noc St · plné · Roshnik Qendër – centrum vesnice, vedle Mimani · –</desc><link href="https://www.booking.com/hotel/al/agro-bujtina-alpeta.html"><text>Booking</text></link><sym>Lodging</sym></wpt>
<wpt lat="40.6469" lon="20.0408"><name>Nurellari Winery Cellar and Guest House</name><desc>noc St · volné · Nurellari Winery, 10 km jihovýchodně od Beratu (mezi vinicemi) · storno zdarma do 23. 9. 18:00, bez platby předem</desc><link href="https://www.booking.com/hotel/al/nurellari-winery-cellar-and-guest-house.html"><text>Booking</text></link><sym>Lodging</sym></wpt>
<wpt lat="40.7059" lon="19.9511"><name>Hotel Mangalemi</name><desc>noc St · volné (1 pokoj) · Rruga Mihal Komneno, Berat – čtvrť Mangalem, 700 m od centra · storno zdarma do 22. 9., bez platby předem</desc><link href="https://www.booking.com/hotel/al/mangalemi.html"><text>Booking</text></link><sym>Lodging</sym></wpt>
<wpt lat="40.7097" lon="19.945"><name>Hotel Klea</name><desc>noc St · plné · Lagja Kala, Berat – uvnitř hradu · –</desc><link href="https://www.booking.com/hotel/al/klea.html"><text>Booking</text></link><sym>Lodging</sym></wpt>
<wpt lat="41.247" lon="19.596"><name>Agroturizëm Huqi (jen střed obce)</name><desc>noc Čt</desc><sym>Lodging</sym></wpt>
<wpt lat="41.858" lon="19.628"><name>Mrizi i Zanave (jen střed obce)</name><desc>noc Čt</desc><sym>Lodging</sym></wpt>
<wpt lat="40.2902" lon="20.1254"><name>Bujtina Peshtan Guesthouse &amp; Camping</name><desc>noc Pá · volné · Peshtan, Tepelenë (9 km od města směr Këlcyrë) · neuvedeno u pokojů, ověřit v rezervaci</desc><link href="https://www.booking.com/hotel/al/bujtina-peshtan-guesthouse-amp-camping.html"><text>Booking</text></link><sym>Lodging</sym></wpt>
<wpt lat="40.2149" lon="19.9497"><name>Progon House, Progonat</name><desc>noc Pá · volné · Progonat, Tepelenë · storno zdarma do 17. 9., platba na místě</desc><link href="https://www.booking.com/hotel/al/progon-house.html"><text>Booking</text></link><sym>Lodging</sym></wpt>
<wpt lat="40.2504" lon="20.0659"><name>Hotel Uji Ftohtë, Tepelenë</name><desc>noc Pá · volné (drahé) · Uji i Ftohtë, u pramene 6 km od Tepelenë · jen nevratná sazba</desc><link href="https://www.booking.com/hotel/al/uji-ftohte-tepelene.html"><text>Booking</text></link><sym>Lodging</sym></wpt>
<wpt lat="40.3249" lon="19.9417"><name>Gle-Alb AgroTourism, Tepelenë</name><desc>noc Pá · volné · Lagja Revait Dukaj, Tepelenë (7 km, nad údolím Vjosy) · platba na místě, storno ověřit</desc><link href="https://www.booking.com/hotel/al/bujtina-glealb.html"><text>Booking</text></link><sym>Lodging</sym></wpt>
<wpt lat="40.075" lon="20.1351"><name>Ahmetaj Guest House, Gjirokastër</name><desc>noc So · volné · Rruga Pertef Kokona, Gjirokastër, 350 m od centra, blízko hradu · storno zdarma do 18. 9., platba na místě</desc><link href="https://www.booking.com/hotel/al/ahmetaj-guest-house.html"><text>Booking</text></link><sym>Lodging</sym></wpt>
<wpt lat="40.0752" lon="20.1352"><name>Boutique Hotel Musée, Gjirokastër</name><desc>noc So · volné · Lagjja Palorto, Gjirokastër, 300 m od centra · platba na místě; storno zdarma neuvedeno</desc><link href="https://www.booking.com/hotel/al/muse-39-e.html"><text>Booking</text></link><sym>Lodging</sym></wpt>
<wpt lat="40.0742" lon="20.1378"><name>Alsara Guesthouse, Gjirokastër</name><desc>noc So · volné · Rruga Ismail Kadare, Gjirokastër, 200 m od centra · storno zdarma do 18. 9., platba na místě</desc><link href="https://www.booking.com/hotel/al/alsara-guesthouse.html"><text>Booking</text></link><sym>Lodging</sym></wpt>
<wpt lat="40.0733" lon="20.1464"><name>Guest House AmaDes, Gjirokastër</name><desc>noc So · volné · Rruga Hasan Xhiku, Gjirokastër, 0,7 km od centra (15 min pěšky k hradu) · storno zdarma do 18. 9., platba na místě</desc><link href="https://www.booking.com/hotel/al/guest-house-amades.html"><text>Booking</text></link><sym>Lodging</sym></wpt>
<wpt lat="40.0725" lon="20.1363"><name>Manga Guesthouse, Gjirokastër</name><desc>noc So · volné · Rruga Selam Musai, Gjirokastër, 450 m od centra · storno zdarma do 18. 9., platba na místě</desc><link href="https://www.booking.com/hotel/al/manga-guesthouse.html"><text>Booking</text></link><sym>Lodging</sym></wpt>
<wpt lat="40.0732" lon="20.1376"><name>Old Town Hotel, Gjirokastër</name><desc>noc So · volné · Rruga Shezai Como, Gjirokastër, 300 m od centra · storno zdarma do 18. 9., platba na místě</desc><link href="https://www.booking.com/hotel/al/relax-inn-gjirokaster.html"><text>Booking</text></link><sym>Lodging</sym></wpt>
<wpt lat="40.0773" lon="20.1414"><name>Bizant House Boutique Hotel, Gjirokastër</name><desc>noc So · volné · Rruga 7 Kronjtë, Gjirokastër, 250 m od centra · jen nevratná sazba</desc><link href="https://www.booking.com/hotel/al/bizant-house-boutique.html"><text>Booking</text></link><sym>Lodging</sym></wpt>
<wpt lat="40.2289" lon="20.3554"><name>Shtëpia me Lule, Përmet</name><desc>noc Ne · volné · Përmet, 0,6 km od centra u promenády · storno zdarma do 19. 9. (dražší sazba), levnější nevratná</desc><link href="https://www.booking.com/hotel/al/house-of-roses-permet2.html"><text>Booking</text></link><sym>Lodging</sym></wpt>
<wpt lat="40.2328" lon="20.3524"><name>Nako Guest House, Përmet</name><desc>noc Ne · volné · Promenáda Mentor Xhemali, Përmet, 100 m od centra · storno zdarma do 19. 9., platba na místě</desc><link href="https://www.booking.com/hotel/al/nako-guest-house.html"><text>Booking</text></link><sym>Lodging</sym></wpt>
<wpt lat="40.2386" lon="20.3491"><name>Joan Guesthouse, Përmet</name><desc>noc Ne · volné · Lagjja Mejden, Përmet, 0,6 km od centra · platba na místě; storno zdarma neuvedeno</desc><link href="https://www.booking.com/hotel/al/joan-guesthouse.html"><text>Booking</text></link><sym>Lodging</sym></wpt>
<wpt lat="40.2049" lon="20.4165"><name>Bujtina Lugina e Vjosës, Petran</name><desc>noc Ne · volné · Petran, Përmet, 6 km od města (vedle Stone House) · storno zdarma do 17. 9. u dražší sazby, platba na místě</desc><link href="https://www.booking.com/hotel/al/bujtina-lugina-e-vjoses.html"><text>Booking</text></link><sym>Lodging</sym></wpt>
<wpt lat="40.251" lon="20.3326"><name>Kutal Park Inn Hotel, Përmet</name><desc>noc Ne · volné · silnice Përmet–Këlcyrë, 2,5 km od Përmetu (na nedělní cestě) · platba na místě; storno zdarma neuvedeno</desc><link href="https://www.booking.com/hotel/al/baci-permet1.html"><text>Booking</text></link><sym>Lodging</sym></wpt>
<wpt lat="40.6319" lon="20.5879"><name>Bujtina Shkodrani, Voskopojë</name><desc>noc Po · volné · Rruga Shen Kolli, Voskopojë (u kostela sv. Mikuláše) · storno zdarma do 20. 9., bez platby předem</desc><link href="https://www.booking.com/hotel/al/bujtina-shkodrani.html"><text>Booking</text></link><sym>Lodging</sym></wpt>
<wpt lat="40.6347" lon="20.5929"><name>Vila118, Voskopojë</name><desc>noc Po · volné · Voskopojë, 300 m od centra (severní okraj) · storno zdarma do 20. 9., bez platby předem</desc><link href="https://www.booking.com/hotel/al/vila118.html"><text>Booking</text></link><sym>Lodging</sym></wpt>
<wpt lat="40.6346" lon="20.5929"><name>Vila Mata, Voskopojë</name><desc>noc Po · volné · Voskopojë, hned vedle Vila118 (severní okraj) · storno zdarma do 20. 9., bez platby předem</desc><link href="https://www.booking.com/hotel/al/vila-mata.html"><text>Booking</text></link><sym>Lodging</sym></wpt>
<wpt lat="40.633" lon="20.592"><name>Vila Helen, Voskopojë</name><desc>noc Po · volné · SH63 Nr 5/2, Voskopojë – 200 m od centra · storno zdarma do 20. 9. u dražší sazby, platba na místě; levnější nevratná</desc><link href="https://www.booking.com/hotel/al/vila-helen.html"><text>Booking</text></link><sym>Lodging</sym></wpt>
<wpt lat="40.6332" lon="20.5898"><name>Vila Janko, Voskopojë</name><desc>noc Po · volné · Rruga Rilindja Voskopojare, Voskopojë – 50 m od centra · storno zdarma do 20. 9., bez platby předem</desc><link href="https://www.booking.com/hotel/al/vila-janko-voskopoje1.html"><text>Booking</text></link><sym>Lodging</sym></wpt>
<wpt lat="40.6355" lon="20.5896"><name>Bujtina Mecollari, Voskopojë</name><desc>noc Po · volné · Rruga Shen Maria, Voskopojë (severní okraj, u kostela sv. Marie) · storno zdarma do 20. 9., bez platby předem</desc><link href="https://www.booking.com/hotel/al/bujtina-mecollari.html"><text>Booking</text></link><sym>Lodging</sym></wpt>
<wpt lat="40.6274" lon="20.6138"><name>Ura e Kovaçit Resort &amp; Agrotourism</name><desc>noc Po · volné · silnice Korçë–Voskopojë, 2 km pod Voskopojë (u mostu) · storno zdarma do 20. 9., bez platby předem</desc><link href="https://www.booking.com/hotel/al/ura-e-kovacit-agrotourism.html"><text>Booking</text></link><sym>Lodging</sym></wpt>
<wpt lat="40.5704" lon="20.1474"><name>Dafinat, Bogovë</name><desc>noc Út · volné · Rruga Selan 11, Bogovë – 200 m od centra, hned vedle White Villy · storno zdarma do 22. 9. 18:00, bez platby předem</desc><link href="https://www.booking.com/hotel/al/dafinat-bogove.html"><text>Booking</text></link><sym>Lodging</sym></wpt>
<wpt lat="40.5051" lon="20.1922"><name>Guest House Marsi, Çorovodë</name><desc>noc Út · volné · Çorovodë, 2,9 km západně od centra (směr Bogovë), mezi ovocnými stromy · storno zdarma kdykoli, platba na místě</desc><link href="https://www.booking.com/hotel/al/guesthouse-marsi.html"><text>Booking</text></link><sym>Lodging</sym></wpt>
<wpt lat="40.5006" lon="20.2326"><name>Vila Zeni Zoto, Çorovodë</name><desc>noc Út · volné · Rruga Kalocit, Çorovodë – nad městem s panoramatickou terasou · storno zdarma do 21. 9., bez platby předem</desc><link href="https://www.booking.com/hotel/al/vila-zeni-zoto.html"><text>Booking</text></link><sym>Lodging</sym></wpt>
<wpt lat="40.5033" lon="20.2276"><name>Guest House Luli Mucaj, Çorovodë</name><desc>noc Út · volné · Rruga e Dëshmorëve, Çorovodë – centrum · storno zdarma do 21. 9., bez platby předem</desc><link href="https://www.booking.com/hotel/al/guest-house-luli-muca.html"><text>Booking</text></link><sym>Lodging</sym></wpt>
<wpt lat="40.4977" lon="20.2296"><name>Stylish Room by Canyons &amp; City, Çorovodë</name><desc>noc Út · volné · Rruga Alush Grepcka, Çorovodë – jižní část města · storno zdarma do 21. 9. u dražší sazby, bez platby předem</desc><link href="https://www.booking.com/hotel/al/stylish-room-by-canyons-amp-city.html"><text>Booking</text></link><sym>Lodging</sym></wpt>
<wpt lat="40.493" lon="20.2321"><name>Hotel Kanione, Çorovodë</name><desc>noc Út · volné · Lagjja Zhaban, Çorovodë – jižní okraj, nad kaňonem · jen nevratná sazba</desc><link href="https://www.booking.com/hotel/al/kanione.html"><text>Booking</text></link><sym>Lodging</sym></wpt>
<wpt lat="40.588" lon="20.1032"><name>Farm River and Kanoe, Poliçan</name><desc>noc Út · volné · Rruga Gezhojat, Poliçan – u řeky Osum, 2 km od města · storno zdarma do 21. 9. u dražší sazby, bez platby předem</desc><link href="https://www.booking.com/hotel/al/farm-river-and-kanoe.html"><text>Booking</text></link><sym>Lodging</sym></wpt>
<wpt lat="40.5863" lon="20.1063"><name>Village House in Poliçan</name><desc>noc Út · volné · Pronovik, Poliçan – 2,9 km od centra, nad rodinným domem majitelů · storno zdarma do 19. 9., bez platby předem</desc><link href="https://www.booking.com/hotel/al/village-house-in-polican.html"><text>Booking</text></link><sym>Lodging</sym></wpt>
<wpt lat="40.7046" lon="19.9491"><name>Guest House J.Prifti, Berat</name><desc>noc St · volné · Mangalem, Berat – historická čtvrť · storno zdarma do 20. 9., bez platby předem</desc><link href="https://www.booking.com/hotel/al/guest-house-jprifti.html"><text>Booking</text></link><sym>Lodging</sym></wpt>
<wpt lat="40.7321" lon="20.0414"><name>Mimani Stone House, Roshnik</name><desc>noc St · volné · Roshnik Qendër (centrum vesnice), 15 km východně od Beratu · bez platby předem</desc><link href="https://www.booking.com/hotel/al/mimani-stone-house.html"><text>Booking</text></link><sym>Lodging</sym></wpt>
<wpt lat="40.7318" lon="20.0417"><name>Vila Harmoni, Roshnik</name><desc>noc St · volné · Roshnik, vedle Mimani Stone House · storno zdarma do 22. 9., bez platby předem</desc><link href="https://www.booking.com/hotel/al/vila-harmoni-roshnik.html"><text>Booking</text></link><sym>Lodging</sym></wpt>
<wpt lat="40.7009" lon="20.051"><name>Guest Parents House (Roshnik)</name><desc>noc St · volné · PSČ Roshnik, ale bod na mapě Bookingu leží 3,5 km JIŽNĚ od Roshniku (u silnice Berat–Roshnik) – před rezervací ověřit polohu s hostitelem · storno zdarma do 23. 9. 14:00, bez platby předem</desc><link href="https://www.booking.com/hotel/al/guesthouse-parents-house.html"><text>Booking</text></link><sym>Lodging</sym></wpt>
<wpt lat="40.7047" lon="19.9485"><name>Guest House Koxhaku, Berat</name><desc>noc St · volné · Rruga Antipatrea / Llambi Guxhumani, Berat – Mangalem u řeky, 900 m od centra · bez platby předem</desc><link href="https://www.booking.com/hotel/al/guest-house-koxhaku.html"><text>Booking</text></link><sym>Lodging</sym></wpt>
<wpt lat="40.7044" lon="19.9476"><name>Timo&#x27;s Guest House, Berat</name><desc>noc St · volné (jen triple) · Rruga Shën Mëhilli, Berat – Mangalem pod hradem · bez platby předem</desc><link href="https://www.booking.com/hotel/al/timo-39-s-guest-house.html"><text>Booking</text></link><sym>Lodging</sym></wpt>
<wpt lat="40.7022" lon="19.9627"><name>Citrus Nest, Berat</name><desc>noc St · volné · Rruga Xhemil Ohri, Berat – nová část, 1,2 km východně od Mangalemu · storno zdarma kdykoli, platba na místě</desc><link href="https://www.booking.com/hotel/al/citrusnest.html"><text>Booking</text></link><sym>Lodging</sym></wpt>
<wpt lat="40.7025" lon="19.945"><name>The Well House – UNESCO, Berat</name><desc>noc St · volné · Rruga Shpiragu, Berat – Gorica, 2 min od parkoviště (500 lek/den) · storno zdarma do 22. 9., bez platby předem</desc><link href="https://www.booking.com/hotel/al/vila-4-bed-amp-breakfast.html"><text>Booking</text></link><sym>Lodging</sym></wpt>
<wpt lat="40.702" lon="19.9464"><name>Oda e Skulptorit, Berat</name><desc>noc St · volné · Rruga Nikolla Buhuri, Berat – Gorica (přes řeku od Mangalemu) · storno zdarma do 22. 9., bez platby předem</desc><link href="https://www.booking.com/hotel/al/oda-e-skulptorit.html"><text>Booking</text></link><sym>Lodging</sym></wpt>
</gpx>
